#aV2012  8 23  0  0  0.00000000     288 DD+AD WGS84 FIT  NGA
## 1702 345600.00000000   300.00000000 56162 0.0000000000000
+   31     1  2  3  4  5  6  7  8  9 10 11 12 13 14 15 16 17
+         18 19 20 21 22 23 25 26 27 28 29 30 31 32  0  0  0
+          0  0  0  0  0  0  0  0  0  0  0  0  0  0  0  0  0
+          0  0  0  0  0  0  0  0  0  0  0  0  0  0  0  0  0
+          0  0  0  0  0  0  0  0  0  0  0  0  0  0  0  0  0
++         2  2  2  2  2  2  2  2  2  2  2  2  2  2  2  2  2
++         2  2  2  2  2  2  2  2  2  2  2  2  2  2  2  0  0
++         0  0  0  0  0  0  0  0  0  0  0  0  0  0  0  0  0
++         0  0  0  0  0  0  0  0  0  0  0  0  0  0  0  0  0
++         0  0  0  0  0  0  0  0  0  0  0  0  0  0  0  0  0
%c cc cc ccc ccc cccc cccc cccc cccc ccccc ccccc ccccc ccccc
%c cc cc ccc ccc cccc cccc cccc cccc ccccc ccccc ccccc ccccc
%f  0.0000000  0.000000000  0.00000000000  0.000000000000000
%f  0.0000000  0.000000000  0.00000000000  0.000000000000000
%i    0    0    0    0      0      0      0      0         0
%i    0    0    0    0      0      0      0      0         0
/*      NGA, ST. LOUIS,MO.                                  
/*   EPHEMERIS COMPUTED FROM  1 DAYS OF DATA
/*   EPOCHA SMOOTHER  
/* CCCCCCCCCCCCCCCCCCCCCCCCCCCCCCCCCCCCCCCCCCCCCCCCCCCCCCCCC
*  2012  8 23  5 10  0.00000000                                                 
P  1 -14098.842219  22472.877493    422.609247    270.707860                    
V  1  -2166.578238  -1972.418534  31773.290139      0.014939                    
P  2  18478.059503  -5525.381755 -17897.863883    400.687926                    
V  2  -9919.458597  21172.323022 -17147.101483      0.011023                    
P  3 -18052.650673   -701.453232  19061.580848     91.834345                    
V  3 -13660.710520 -21325.521373 -13125.464648      0.049879                    
P  4  13396.754537   8433.206014 -21583.762486    282.457198                    
V  4 -14208.590294  22832.656069    413.439880      0.113134                    
P  5  26232.057557  -2188.492147   4032.994582   -345.919571                    
V  5   5049.887802   3129.277891 -30877.071786     -0.032010                    
P  6 -19072.302365  -6260.619211  17652.240036    -14.451432                    
V  6 -10130.349512 -19786.098659 -17756.676274     -0.075943                    
P  7  -4315.397986  22771.869129  12738.832376    113.858720                    
V  7 -10487.874897  12540.161981 -26293.171990      0.040883                    
P  8   6050.230727  14641.345965  21267.609533      2.065755                    
V  8 -16931.927244  20880.561689 -10163.900464      0.000759                    
P  9  15806.924733 -20859.125973   4147.772584    180.567471                    
V  9  -1326.879301   6142.343671  31667.827477      0.025895                    
P 10  21653.527143   9983.509629 -12372.214640    -49.143159                    
V 10 -15285.482612   1638.266653 -25574.084246     -0.013754                    
P 11 -13002.897083  21246.955361   8367.198560   -295.036819                    
V 11  -1700.217376 -12306.837363  27617.487684     -0.039538                    
P 12  14907.046518 -11652.526931 -18577.106023     86.915630                    
V 12  23467.097391   2554.706479  17428.877498      0.020321                    
P 13   3970.924917  24662.674437  -8991.549593    186.138456                    
V 13  -6164.732748  -9585.139428 -29565.028542     -0.025451                    
P 14 -14593.133541 -21220.738667  -6620.154926    210.773086                    
V 14  -1670.403734  -8700.186118  30538.852234      0.010391                    
P 15  10289.226242 -12583.289632  20965.122326    -94.142539                    
V 15  13990.019354  22797.965095   7032.469146     -0.005792                    
P 16 -26398.340888    844.246042   4116.377988   -244.372110                    
V 16  -5028.300040  -2234.050285 -31437.443764     -0.009048                    
P 17  15056.988294  21162.156805  -5956.796625    102.747914                    
V 17   1220.130365   8033.937245  30457.467779     -0.032519                    
P 18  -6428.524097 -15794.508154  20810.197138    211.406892                    
V 18  25638.174131    143.064380   7815.435512      0.018139                    
P 19 -12298.201671   9393.753268  21480.086184   -296.928718                    
V 19 -11389.303188 -25012.622429   4797.846832     -0.035941                    
P 20 -11362.437058  14566.122719 -19216.741738     66.759401                    
V 20 -24234.391900  -1213.723651  13589.504209      0.007000                    
P 21    340.988991 -21885.059177  15147.610311   -244.957193                    
V 21  12296.028728 -14340.330487 -22299.311406     -0.024590                    
P 22 -20201.426290 -10988.791566  13589.269752    146.929720                    
V 22  17081.040739  -2209.665790  23812.393141      0.005260                    
P 23  -4387.448792  18830.596818 -17983.085146    172.219934                    
V 23 -12330.809359 -19609.230265 -17855.396720     -0.039469                    
P 25    511.498242 -15037.440264 -21928.230928     40.508365                    
V 25  27710.602053    579.465944    309.906895      0.010901                    
P 26  15796.468825   1676.045221  20737.862303   -305.701623                    
V 26  10421.987264  25606.956954  -9378.671338      0.125892                    
P 27  17464.160756 -17270.214428   9991.830196    423.182556                    
V 27  -4013.474984  11478.793549  29084.428776      0.041327                    
P 28  17244.135721  12509.758537  16555.466113    177.984681                    
V 28 -19887.818525   -379.790885  21533.123304      0.038602                    
P 29  -1695.654602 -23393.058486 -12456.060465    347.313962                    
V 29   8893.591855  13338.649378 -26101.126449      0.042206                    
P 30 -25308.657114  -3484.954468  -7598.336198   -380.826618                    
V 30   8956.330955  -3252.834269 -29780.825671     -0.240671                    
P 31 -13827.027659  -5499.933880 -21829.553125    269.420080                    
V 31  15078.626152 -23700.711562  -3313.424171      0.025835                    
P 32 -19960.540526   8366.276757 -14860.026532   -479.719372                    
V 32 -19008.306333  -4872.842573  22975.662614     -0.042872                    
EOF
